{
  "type": "FeatureCollection",
  "features": [
    {
      "type": "Feature",
      "properties": {
        "norad_id": 42917,
        "name": "QZS-3 (QZSS/PRN 199)",
        "group": "gnss",
        "lat": 0.011504318957026567,
        "lon": 22.92989599851168,
        "alt_km": 35789.4439517831,
        "timestamp": "2025-12-14T11:29:50.303176+00:00",
        "meta_object_name": "QZS-3 (QZSS/PRN 199)",
        "meta_object_id": "2017-048A",
        "meta_epoch": "2025-12-13T15:45:59.946912",
        "meta_mean_motion": 1.00271753,
        "meta_eccentricity": 0.00019459,
        "meta_inclination": 0.0598,
        "meta_ra_of_asc_node": 191.4939,
        "meta_arg_of_pericenter": 78.4042,
        "meta_mean_anomaly": 176.2511,
        "meta_ephemeris_type": 0,
        "meta_classification_type": "U",
        "meta_norad_cat_id": 42917,
        "meta_element_set_no": 999,
        "meta_rev_at_epoch": 3039,
        "meta_bstar": 0,
        "meta_mean_motion_dot": -3.32e-06,
        "meta_mean_motion_ddot": 0,
        "tle_line1": "1 42917U 17048A   25347.65694383 -.00000332  00000+0  00000+0 0  9995",
        "tle_line2": "2 42917   0.0598 191.4939 0001945  78.4042 176.2511  1.00271753 30391"
      },
      "geometry": {
        "type": "Point",
        "coordinates": [
          22.92989599851168,
          0.011504318957026567
        ]
      }
    },
    {
      "type": "Feature",
      "properties": {
        "norad_id": 42939,
        "name": "COSMOS 2522 (752)",
        "group": "gnss",
        "lat": -6.489674120158211,
        "lon": 21.344378047272798,
        "alt_km": 19118.23146486194,
        "timestamp": "2025-12-14T11:29:50.303188+00:00",
        "meta_object_name": "COSMOS 2522 (752)",
        "meta_object_id": "2017-055A",
        "meta_epoch": "2025-12-10T22:48:12.074400",
        "meta_mean_motion": 2.1310181,
        "meta_eccentricity": 0.00064932,
        "meta_inclination": 64.076,
        "meta_ra_of_asc_node": 198.29,
        "meta_arg_of_pericenter": 225.3551,
        "meta_mean_anomaly": 134.6611,
        "meta_ephemeris_type": 0,
        "meta_classification_type": "U",
        "meta_norad_cat_id": 42939,
        "meta_element_set_no": 999,
        "meta_rev_at_epoch": 6396,
        "meta_bstar": 0,
        "meta_mean_motion_dot": 5.1e-07,
        "meta_mean_motion_ddot": 0,
        "tle_line1": "1 42939U 17055A   25344.95013975  .00000051  00000+0  00000+0 0  9996",
        "tle_line2": "2 42939  64.0760 198.2900 0006493 225.3551 134.6611  2.13101810 63969"
      },
      "geometry": {
        "type": "Point",
        "coordinates": [
          21.344378047272798,
          -6.489674120158211
        ]
      }
    },
    {
      "type": "Feature",
      "properties": {
        "norad_id": 42965,
        "name": "QZS-4 (QZSS/PRN 195)",
        "group": "gnss",
        "lat": 30.59237971245098,
        "lon": 30.22128344295858,
        "alt_km": 38141.14368578576,
        "timestamp": "2025-12-14T11:29:50.303202+00:00",
        "meta_object_name": "QZS-4 (QZSS/PRN 195)",
        "meta_object_id": "2017-062A",
        "meta_epoch": "2025-12-12T20:44:51.743328",
        "meta_mean_motion": 1.00252956,
        "meta_eccentricity": 0.07518695,
        "meta_inclination": 40.2257,
        "meta_ra_of_asc_node": 345.8683,
        "meta_arg_of_pericenter": 271.56,
        "meta_mean_anomaly": 271.9871,
        "meta_ephemeris_type": 0,
        "meta_classification_type": "U",
        "meta_norad_cat_id": 42965,
        "meta_element_set_no": 999,
        "meta_rev_at_epoch": 2993,
        "meta_bstar": 0,
        "meta_mean_motion_dot": -3.6e-06,
        "meta_mean_motion_ddot": 0,
        "tle_line1": "1 42965U 17062A   25346.86448777 -.00000360  00000+0  00000+0 0  9991",
        "tle_line2": "2 42965  40.2257 345.8683 0751869 271.5600 271.9871  1.00252956 29930"
      },
      "geometry": {
        "type": "Point",
        "coordinates": [
          30.22128344295858,
          30.59237971245098
        ]
      }
    },
    {
      "type": "Feature",
      "properties": {
        "norad_id": 43001,
        "name": "BEIDOU-3 M1 (C19)",
        "group": "gnss",
        "lat": 31.914139604140857,
        "lon": 93.47888838357339,
        "alt_km": 21526.832480679917,
        "timestamp": "2025-12-14T11:29:50.303216+00:00",
        "meta_object_name": "BEIDOU-3 M1 (C19)",
        "meta_object_id": "2017-069A",
        "meta_epoch": "2025-12-13T08:19:00.908256",
        "meta_mean_motion": 1.86231197,
        "meta_eccentricity": 0.00092543,
        "meta_inclination": 56.5278,
        "meta_ra_of_asc_node": 69.2133,
        "meta_arg_of_pericenter": 303.3207,
        "meta_mean_anomaly": 56.6091,
        "meta_ephemeris_type": 0,
        "meta_classification_type": "U",
        "meta_norad_cat_id": 43001,
        "meta_element_set_no": 999,
        "meta_rev_at_epoch": 5514,
        "meta_bstar": 0,
        "meta_mean_motion_dot": -7.8e-07,
        "meta_mean_motion_ddot": 0,
        "tle_line1": "1 43001U 17069A   25347.34653829 -.00000078  00000+0  00000+0 0  9996",
        "tle_line2": "2 43001  56.5278  69.2133 0009254 303.3207  56.6091  1.86231197 55145"
      },
      "geometry": {
        "type": "Point",
        "coordinates": [
          93.47888838357339,
          31.914139604140857
        ]
      }
    },
    {
      "type": "Feature",
      "properties": {
        "norad_id": 43002,
        "name": "BEIDOU-3 M2 (C20)",
        "group": "gnss",
        "lat": 55.4168221852599,
        "lon": 142.61612821970323,
        "alt_km": 21527.519107929045,
        "timestamp": "2025-12-14T11:29:50.303228+00:00",
        "meta_object_name": "BEIDOU-3 M2 (C20)",
        "meta_object_id": "2017-069B",
        "meta_epoch": "2025-12-12T17:57:03.193632",
        "meta_mean_motion": 1.86230645,
        "meta_eccentricity": 0.00063664,
        "meta_inclination": 56.5266,
        "meta_ra_of_asc_node": 69.2696,
        "meta_arg_of_pericenter": 331.453,
        "meta_mean_anomaly": 28.5312,
        "meta_ephemeris_type": 0,
        "meta_classification_type": "U",
        "meta_norad_cat_id": 43002,
        "meta_element_set_no": 999,
        "meta_rev_at_epoch": 5512,
        "meta_bstar": 0,
        "meta_mean_motion_dot": -7.4e-07,
        "meta_mean_motion_ddot": 0,
        "tle_line1": "1 43002U 17069B   25346.74795363 -.00000074  00000+0  00000+0 0  9996",
        "tle_line2": "2 43002  56.5266  69.2696 0006366 331.4530  28.5312  1.86230645 55128"
      },
      "geometry": {
        "type": "Point",
        "coordinates": [
          142.61612821970323,
          55.4168221852599
        ]
      }
    },
    {
      "type": "Feature",
      "properties": {
        "norad_id": 43055,
        "name": "GSAT0215 (GALILEO 19)",
        "group": "gnss",
        "lat": 27.883442632524414,
        "lon": 24.969251666536795,
        "alt_km": 23222.18106654514,
        "timestamp": "2025-12-14T11:29:50.303239+00:00",
        "meta_object_name": "GSAT0215 (GALILEO 19)",
        "meta_object_id": "2017-079A",
        "meta_epoch": "2025-12-11T21:30:24.060384",
        "meta_mean_motion": 1.704739,
        "meta_eccentricity": 0.00012658,
        "meta_inclination": 55.1303,
        "meta_ra_of_asc_node": 226.661,
        "meta_arg_of_pericenter": 350.6161,
        "meta_mean_anomaly": 9.46,
        "meta_ephemeris_type": 0,
        "meta_classification_type": "U",
        "meta_norad_cat_id": 43055,
        "meta_element_set_no": 999,
        "meta_rev_at_epoch": 4979,
        "meta_bstar": 0,
        "meta_mean_motion_dot": 1.3e-07,
        "meta_mean_motion_ddot": 0,
        "tle_line1": "1 43055U 17079A   25345.89611181  .00000013  00000+0  00000+0 0  9997",
        "tle_line2": "2 43055  55.1303 226.6610 0001265 350.6161   9.4600  1.70473900 49794"
      },
      "geometry": {
        "type": "Point",
        "coordinates": [
          24.969251666536795,
          27.883442632524414
        ]
      }
    },
    {
      "type": "Feature",
      "properties": {
        "norad_id": 43056,
        "name": "GSAT0216 (GALILEO 20)",
        "group": "gnss",
        "lat": -26.986158714427724,
        "lon": -154.17935212758127,
        "alt_km": 23218.87425459089,
        "timestamp": "2025-12-14T11:29:50.303250+00:00",
        "meta_object_name": "GSAT0216 (GALILEO 20)",
        "meta_object_id": "2017-079B",
        "meta_epoch": "2025-12-13T08:39:13.176288",
        "meta_mean_motion": 1.70474029,
        "meta_eccentricity": 0.00023036,
        "meta_inclination": 55.1302,
        "meta_ra_of_asc_node": 226.6206,
        "meta_arg_of_pericenter": 326.735,
        "meta_mean_anomaly": 33.3311,
        "meta_ephemeris_type": 0,
        "meta_classification_type": "U",
        "meta_norad_cat_id": 43056,
        "meta_element_set_no": 999,
        "meta_rev_at_epoch": 4983,
        "meta_bstar": 0,
        "meta_mean_motion_dot": 2.3e-07,
        "meta_mean_motion_ddot": 0,
        "tle_line1": "1 43056U 17079B   25347.36056917  .00000023  00000+0  00000+0 0  9993",
        "tle_line2": "2 43056  55.1302 226.6206 0002303 326.7350  33.3311  1.70474029 49836"
      },
      "geometry": {
        "type": "Point",
        "coordinates": [
          -154.17935212758127,
          -26.986158714427724
        ]
      }
    }
  ]
}